ONEWEB-0684             
1 56720U 23068L   25264.12460555  .00000186  00000+0  46010-3 0  9994
2 56720  87.9004 312.8711 0001126 146.6199 213.5003 13.15550081113872
ONEWEB-0686             
1 56721U 23068M   25264.29041810  .00000051  00000+0  98720-4 0  9999
2 56721  87.8963 282.3885 0001991 100.9881 259.1474 13.16592787116332
ONEWEB-0694             
1 56722U 23068N   25264.10518798  .00000146  00000+0  34763-3 0  9995
2 56722  87.8983 282.3565 0002284  95.4759 264.6632 13.16593531116366
ONEWEB-0696             
1 56723U 23068P   25264.15788369 -.00000189  00000+0 -53641-3 0  9999
2 56723  87.9016 312.9185 0001547  97.0637 263.0669 13.15547334113995
ONEWEB-0703             
1 56724U 23068Q   25264.16738807 -.00000320  00000+0 -88367-3 0  9993
2 56724  87.9011 312.9010 0001083  67.1457 292.9788 13.15547768113883
ONEWEB-0721             
1 56725U 23068R   25264.24497647  .00000110  00000+0  22856-3 0  9993
2 56725  86.6874 171.2605 0001782  72.8035 287.3293 13.22445322122390
ONEWEB-0015             
1 61594U 24188A   25264.21074123 -.00000194  00000+0 -58391-3 0  9991
2 61594  87.8788  74.6830 0002116  77.1082 283.0282 13.11419231 49202
ONEWEB-0687             
1 61595U 24188B   25264.18892737  .00000027  00000+0  35400-4 0  9997
2 61595  87.9047  59.4110 0002304  94.1560 265.9835 13.17646912 50471
ONEWEB-0688             
1 61596U 24188C   25264.14167920  .00000042  00000+0  74430-4 0  9996
2 61596  87.9049  59.4205 0002700  71.1863 288.9562 13.17649351 50461
ONEWEB-0689             
1 61597U 24188D   25264.24466133  .00000443  00000+0  12146-2 0  9995
2 61597  87.8750  74.6277 0001963  96.7967 263.3385 13.11415412 49209
ONEWEB-0690             
1 61598U 24188E   25264.17854857  .00002730  00000+0  76676-2 0  9991
2 61598  87.8792  74.6254 0000974  73.8027 286.3208 13.11402743 49375
ONEWEB-0691             
1 61599U 24188F   25264.17344091  .00000096  00000+0  23387-3 0  9991
2 61599  87.8715  74.5765 0001905  79.3599 280.7743 13.11413724 49224
ONEWEB-0692             
1 61600U 24188G   25264.19377714 -.00000468  00000+0 -13554-2 0  9993
2 61600  87.8774  74.6849 0001762 123.4311 236.6985 13.11412200 49215
ONEWEB-0693             
1 61601U 24188H   25264.15349204  .00000012  00000+0 -32453-5 0  9999
2 61601  87.9050  59.4367 0001228  65.2912 294.8347 13.17649436 50452
ONEWEB-0695             
1 61602U 24188J   25264.17005582  .00000338  00000+0  91836-3 0  9998
2 61602  87.8777  74.6769 0001998 105.8854 254.2495 13.11415422 49208
ONEWEB-0697             
1 61603U 24188K   25264.20226288 -.00000629  00000+0 -18101-2 0  9999
2 61603  87.8778  74.6614 0001671 120.3528 239.7765 13.11417469 49196
ONEWEB-0698             
1 61604U 24188L   25264.25652105 -.00000112  00000+0 -35235-3 0  9991
2 61604  87.8775  74.6651 0000925 128.4996 231.6215 13.11413957 49227
