[{"OBJECT_NAME":"ONEWEB-0684","OBJECT_ID":"2023-068L","EPOCH":"2025-09-21T02:59:25.919520","MEAN_MOTION":13.15550081,"ECCENTRICITY":0.00011264,"INCLINATION":87.9004,"RA_OF_ASC_NODE":312.8711,"ARG_OF_PERICENTER":146.6199,"MEAN_ANOMALY":213.5003,"EPHEMERIS_TYPE":0,"CLASSIFICATION_TYPE":"U","NORAD_CAT_ID":56720,"ELEMENT_SET_NO":999,"REV_AT_EPOCH":11387,"BSTAR":0.00046009651,"MEAN_MOTION_DOT":1.86e-6,"MEAN_MOTION_DDOT":0},{"OBJECT_NAME":"ONEWEB-0686","OBJECT_ID":"2023-068M","EPOCH":"2025-09-21T06:58:12.123840","MEAN_MOTION":13.16592787,"ECCENTRICITY":0.00019913,"INCLINATION":87.8963,"RA_OF_ASC_NODE":282.3885,"ARG_OF_PERICENTER":100.9881,"MEAN_ANOMALY":259.1474,"EPHEMERIS_TYPE":0,"CLASSIFICATION_TYPE":"U","NORAD_CAT_ID":56721,"ELEMENT_SET_NO":999,"REV_AT_EPOCH":11633,"BSTAR":9.8719727e-5,"MEAN_MOTION_DOT":5.1e-7,"MEAN_MOTION_DDOT":0},{"OBJECT_NAME":"ONEWEB-0694","OBJECT_ID":"2023-068N","EPOCH":"2025-09-21T02:31:28.241472","MEAN_MOTION":13.16593531,"ECCENTRICITY":0.00022845,"INCLINATION":87.8983,"RA_OF_ASC_NODE":282.3565,"ARG_OF_PERICENTER":95.4759,"MEAN_ANOMALY":264.6632,"EPHEMERIS_TYPE":0,"CLASSIFICATION_TYPE":"U","NORAD_CAT_ID":56722,"ELEMENT_SET_NO":999,"REV_AT_EPOCH":11636,"BSTAR":0.00034762517,"MEAN_MOTION_DOT":1.46e-6,"MEAN_MOTION_DDOT":0},{"OBJECT_NAME":"ONEWEB-0696","OBJECT_ID":"2023-068P","EPOCH":"2025-09-21T03:47:21.150816","MEAN_MOTION":13.15547334,"ECCENTRICITY":0.0001547,"INCLINATION":87.9016,"RA_OF_ASC_NODE":312.9185,"ARG_OF_PERICENTER":97.0637,"MEAN_ANOMALY":263.0669,"EPHEMERIS_TYPE":0,"CLASSIFICATION_TYPE":"U","NORAD_CAT_ID":56723,"ELEMENT_SET_NO":999,"REV_AT_EPOCH":11399,"BSTAR":-0.00053641462,"MEAN_MOTION_DOT":-1.89e-6,"MEAN_MOTION_DDOT":0},{"OBJECT_NAME":"ONEWEB-0703","OBJECT_ID":"2023-068Q","EPOCH":"2025-09-21T04:01:02.329248","MEAN_MOTION":13.15547768,"ECCENTRICITY":0.00010834,"INCLINATION":87.9011,"RA_OF_ASC_NODE":312.901,"ARG_OF_PERICENTER":67.1457,"MEAN_ANOMALY":292.9788,"EPHEMERIS_TYPE":0,"CLASSIFICATION_TYPE":"U","NORAD_CAT_ID":56724,"ELEMENT_SET_NO":999,"REV_AT_EPOCH":11388,"BSTAR":-0.00088366659,"MEAN_MOTION_DOT":-3.2e-6,"MEAN_MOTION_DDOT":0},{"OBJECT_NAME":"ONEWEB-0721","OBJECT_ID":"2023-068R","EPOCH":"2025-09-21T05:52:45.967008","MEAN_MOTION":13.22445322,"ECCENTRICITY":0.00017822,"INCLINATION":86.6874,"RA_OF_ASC_NODE":171.2605,"ARG_OF_PERICENTER":72.8035,"MEAN_ANOMALY":287.3293,"EPHEMERIS_TYPE":0,"CLASSIFICATION_TYPE":"U","NORAD_CAT_ID":56725,"ELEMENT_SET_NO":999,"REV_AT_EPOCH":12239,"BSTAR":0.00022856179,"MEAN_MOTION_DOT":1.1e-6,"MEAN_MOTION_DDOT":0},{"OBJECT_NAME":"ONEWEB-0015","OBJECT_ID":"2024-188A","EPOCH":"2025-09-21T05:03:28.042272","MEAN_MOTION":13.11419231,"ECCENTRICITY":0.00021168,"INCLINATION":87.8788,"RA_OF_ASC_NODE":74.683,"ARG_OF_PERICENTER":77.1082,"MEAN_ANOMALY":283.0282,"EPHEMERIS_TYPE":0,"CLASSIFICATION_TYPE":"U","NORAD_CAT_ID":61594,"ELEMENT_SET_NO":999,"REV_AT_EPOCH":4920,"BSTAR":-0.00058391421,"MEAN_MOTION_DOT":-1.94e-6,"MEAN_MOTION_DDOT":0},{"OBJECT_NAME":"ONEWEB-0687","OBJECT_ID":"2024-188B","EPOCH":"2025-09-21T04:32:03.324768","MEAN_MOTION":13.17646912,"ECCENTRICITY":0.00023043,"INCLINATION":87.9047,"RA_OF_ASC_NODE":59.411,"ARG_OF_PERICENTER":94.156,"MEAN_ANOMALY":265.9835,"EPHEMERIS_TYPE":0,"CLASSIFICATION_TYPE":"U","NORAD_CAT_ID":61595,"ELEMENT_SET_NO":999,"REV_AT_EPOCH":5047,"BSTAR":3.5400349e-5,"MEAN_MOTION_DOT":2.7e-7,"MEAN_MOTION_DDOT":0},{"OBJECT_NAME":"ONEWEB-0688","OBJECT_ID":"2024-188C","EPOCH":"2025-09-21T03:24:01.082880","MEAN_MOTION":13.17649351,"ECCENTRICITY":0.00027004,"INCLINATION":87.9049,"RA_OF_ASC_NODE":59.4205,"ARG_OF_PERICENTER":71.1863,"MEAN_ANOMALY":288.9562,"EPHEMERIS_TYPE":0,"CLASSIFICATION_TYPE":"U","NORAD_CAT_ID":61596,"ELEMENT_SET_NO":999,"REV_AT_EPOCH":5046,"BSTAR":7.4429822e-5,"MEAN_MOTION_DOT":4.2e-7,"MEAN_MOTION_DDOT":0},{"OBJECT_NAME":"ONEWEB-0689","OBJECT_ID":"2024-188D","EPOCH":"2025-09-21T05:52:18.738912","MEAN_MOTION":13.11415412,"ECCENTRICITY":0.00019631,"INCLINATION":87.875,"RA_OF_ASC_NODE":74.6277,"ARG_OF_PERICENTER":96.7967,"MEAN_ANOMALY":263.3385,"EPHEMERIS_TYPE":0,"CLASSIFICATION_TYPE":"U","NORAD_CAT_ID":61597,"ELEMENT_SET_NO":999,"REV_AT_EPOCH":4920,"BSTAR":0.0012146395,"MEAN_MOTION_DOT":4.43e-6,"MEAN_MOTION_DDOT":0},{"OBJECT_NAME":"ONEWEB-0690","OBJECT_ID":"2024-188E","EPOCH":"2025-09-21T04:17:06.596448","MEAN_MOTION":13.11402743,"ECCENTRICITY":9.749e-5,"INCLINATION":87.8792,"RA_OF_ASC_NODE":74.6254,"ARG_OF_PERICENTER":73.8027,"MEAN_ANOMALY":286.3208,"EPHEMERIS_TYPE":0,"CLASSIFICATION_TYPE":"U","NORAD_CAT_ID":61598,"ELEMENT_SET_NO":999,"REV_AT_EPOCH":4937,"BSTAR":0.0076675873,"MEAN_MOTION_DOT":2.73e-5,"MEAN_MOTION_DDOT":0},{"OBJECT_NAME":"ONEWEB-0691","OBJECT_ID":"2024-188F","EPOCH":"2025-09-21T04:09:45.294624","MEAN_MOTION":13.11413724,"ECCENTRICITY":0.00019057,"INCLINATION":87.8715,"RA_OF_ASC_NODE":74.5765,"ARG_OF_PERICENTER":79.3599,"MEAN_ANOMALY":280.7743,"EPHEMERIS_TYPE":0,"CLASSIFICATION_TYPE":"U","NORAD_CAT_ID":61599,"ELEMENT_SET_NO":999,"REV_AT_EPOCH":4922,"BSTAR":0.00023386545,"MEAN_MOTION_DOT":9.6e-7,"MEAN_MOTION_DDOT":0},{"OBJECT_NAME":"ONEWEB-0692","OBJECT_ID":"2024-188G","EPOCH":"2025-09-21T04:39:02.344896","MEAN_MOTION":13.114122,"ECCENTRICITY":0.00017621,"INCLINATION":87.8774,"RA_OF_ASC_NODE":74.6849,"ARG_OF_PERICENTER":123.4311,"MEAN_ANOMALY":236.6985,"EPHEMERIS_TYPE":0,"CLASSIFICATION_TYPE":"U","NORAD_CAT_ID":61600,"ELEMENT_SET_NO":999,"REV_AT_EPOCH":4921,"BSTAR":-0.0013554128,"MEAN_MOTION_DOT":-4.68e-6,"MEAN_MOTION_DDOT":0},{"OBJECT_NAME":"ONEWEB-0693","OBJECT_ID":"2024-188H","EPOCH":"2025-09-21T03:41:01.712256","MEAN_MOTION":13.17649436,"ECCENTRICITY":0.00012286,"INCLINATION":87.905,"RA_OF_ASC_NODE":59.4367,"ARG_OF_PERICENTER":65.2912,"MEAN_ANOMALY":294.8347,"EPHEMERIS_TYPE":0,"CLASSIFICATION_TYPE":"U","NORAD_CAT_ID":61601,"ELEMENT_SET_NO":999,"REV_AT_EPOCH":5045,"BSTAR":-3.24526e-6,"MEAN_MOTION_DOT":1.2e-7,"MEAN_MOTION_DDOT":0},{"OBJECT_NAME":"ONEWEB-0695","OBJECT_ID":"2024-188J","EPOCH":"2025-09-21T04:04:52.822848","MEAN_MOTION":13.11415422,"ECCENTRICITY":0.00019985,"INCLINATION":87.8777,"RA_OF_ASC_NODE":74.6769,"ARG_OF_PERICENTER":105.8854,"MEAN_ANOMALY":254.2495,"EPHEMERIS_TYPE":0,"CLASSIFICATION_TYPE":"U","NORAD_CAT_ID":61602,"ELEMENT_SET_NO":999,"REV_AT_EPOCH":4920,"BSTAR":0.00091836167,"MEAN_MOTION_DOT":3.38e-6,"MEAN_MOTION_DDOT":0},{"OBJECT_NAME":"ONEWEB-0697","OBJECT_ID":"2024-188K","EPOCH":"2025-09-21T04:51:15.512832","MEAN_MOTION":13.11417469,"ECCENTRICITY":0.00016711,"INCLINATION":87.8778,"RA_OF_ASC_NODE":74.6614,"ARG_OF_PERICENTER":120.3528,"MEAN_ANOMALY":239.7765,"EPHEMERIS_TYPE":0,"CLASSIFICATION_TYPE":"U","NORAD_CAT_ID":61603,"ELEMENT_SET_NO":999,"REV_AT_EPOCH":4919,"BSTAR":-0.001810116,"MEAN_MOTION_DOT":-6.29e-6,"MEAN_MOTION_DDOT":0},{"OBJECT_NAME":"ONEWEB-0698","OBJECT_ID":"2024-188L","EPOCH":"2025-09-21T06:09:23.418720","MEAN_MOTION":13.11413957,"ECCENTRICITY":9.257e-5,"INCLINATION":87.8775,"RA_OF_ASC_NODE":74.6651,"ARG_OF_PERICENTER":128.4996,"MEAN_ANOMALY":231.6215,"EPHEMERIS_TYPE":0,"CLASSIFICATION_TYPE":"U","NORAD_CAT_ID":61604,"ELEMENT_SET_NO":999,"REV_AT_EPOCH":4922,"BSTAR":-0.0003523547,"MEAN_MOTION_DOT":-1.12e-6,"MEAN_MOTION_DDOT":0}]
